✓ 臺北市自強隧道 → 臺北市自強橋
✓ 臺北市自強橋 → 臺北市士林區至善國中
✓ 臺北市士林區至善國中 → 臺北市士林區中影文化城
{
  "type": "FeatureCollection",
  "features": [
    {
      "type": "Feature",
      "geometry": {
        "type": "LineString",
        "coordinates": [
          [
            121.54926,
            25.09073
          ],
          [
            121.5492,
            25.09138
          ],
          [
            121.54911,
            25.09216
          ],
          [
            121.54897,
            25.09355
          ],
          [
            121.54892,
            25.09402
          ],
          [
            121.54888,
            25.09448
          ],
          [
            121.54888,
            25.09448
          ],
          [
            121.54888,
            25.09463
          ],
          [
            121.54886,
            25.09482
          ],
          [
            121.54884,
            25.09506
          ],
          [
            121.54884,
            25.09506
          ],
          [
            121.54882,
            25.09522
          ],
          [
            121.54879,
            25.09545
          ],
          [
            121.54879,
            25.09547
          ],
          [
            121.54878,
            25.09554
          ],
          [
            121.54877,
            25.09558
          ],
          [
            121.54874,
            25.09562
          ],
          [
            121.54866,
            25.09573
          ],
          [
            121.54863,
            25.09577
          ],
          [
            121.5485,
            25.09587
          ],
          [
            121.5485,
            25.09587
          ],
          [
            121.54851,
            25.09592
          ],
          [
            121.5485,
            25.09594
          ],
          [
            121.54849,
            25.09595
          ],
          [
            121.54848,
            25.09597
          ],
          [
            121.54843,
            25.09605
          ],
          [
            121.54837,
            25.0962
          ],
          [
            121.54835,
            25.09631
          ],
          [
            121.54835,
            25.0964
          ],
          [
            121.54835,
            25.09646
          ],
          [
            121.54838,
            25.09655
          ],
          [
            121.54843,
            25.09669
          ],
          [
            121.54849,
            25.09677
          ],
          [
            121.54852,
            25.09682
          ],
          [
            121.54856,
            25.09688
          ],
          [
            121.54857,
            25.09688
          ],
          [
            121.5486,
            25.09694
          ],
          [
            121.54861,
            25.09698
          ],
          [
            121.54862,
            25.09703
          ],
          [
            121.54864,
            25.09709
          ],
          [
            121.54864,
            25.09715
          ],
          [
            121.54865,
            25.09722
          ],
          [
            121.54862,
            25.09729
          ],
          [
            121.54861,
            25.09733
          ],
          [
            121.54859,
            25.09736
          ],
          [
            121.54858,
            25.09739
          ],
          [
            121.54855,
            25.09744
          ],
          [
            121.54843,
            25.09764
          ],
          [
            121.54823,
            25.09791
          ],
          [
            121.54814,
            25.098
          ],
          [
            121.54803,
            25.0981
          ],
          [
            121.54787,
            25.0983
          ],
          [
            121.54785,
            25.09833
          ],
          [
            121.54767,
            25.09854
          ],
          [
            121.54761,
            25.0986
          ],
          [
            121.54761,
            25.0986
          ],
          [
            121.54773,
            25.09868
          ],
          [
            121.54781,
            25.09872
          ],
          [
            121.54835,
            25.09899
          ],
          [
            121.54853,
            25.09908
          ],
          [
            121.5488,
            25.09921
          ],
          [
            121.54899,
            25.09932
          ],
          [
            121.54916,
            25.09943
          ],
          [
            121.54943,
            25.0996
          ],
          [
            121.54962,
            25.09972
          ],
          [
            121.55007,
            25.10001
          ],
          [
            121.55056,
            25.1003
          ],
          [
            121.55079,
            25.10045
          ],
          [
            121.55095,
            25.10054
          ],
          [
            121.55114,
            25.10066
          ],
          [
            121.55139,
            25.10082
          ],
          [
            121.55156,
            25.10092
          ],
          [
            121.55182,
            25.10108
          ],
          [
            121.55201,
            25.1012
          ],
          [
            121.55207,
            25.10124
          ],
          [
            121.55212,
            25.10127
          ],
          [
            121.5522,
            25.10133
          ],
          [
            121.55227,
            25.10139
          ],
          [
            121.55231,
            25.10144
          ],
          [
            121.55242,
            25.10155
          ],
          [
            121.55248,
            25.10161
          ],
          [
            121.55253,
            25.10168
          ],
          [
            121.55267,
            25.10189
          ],
          [
            121.55285,
            25.10217
          ],
          [
            121.55293,
            25.10228
          ],
          [
            121.55302,
            25.10242
          ],
          [
            121.55318,
            25.10265
          ],
          [
            121.55323,
            25.10273
          ],
          [
            121.55328,
            25.10281
          ],
          [
            121.55334,
            25.10288
          ],
          [
            121.55335,
            25.10289
          ],
          [
            121.55337,
            25.10291
          ],
          [
            121.55341,
            25.10294
          ],
          [
            121.55351,
            25.10303
          ],
          [
            121.55356,
            25.10305
          ],
          [
            121.55363,
            25.10309
          ],
          [
            121.55368,
            25.10311
          ],
          [
            121.55374,
            25.10314
          ],
          [
            121.55386,
            25.10318
          ],
          [
            121.55395,
            25.1032
          ],
          [
            121.55423,
            25.10327
          ],
          [
            121.55462,
            25.10341
          ],
          [
            121.55492,
            25.10353
          ],
          [
            121.55529,
            25.10368
          ],
          [
            121.55537,
            25.10372
          ],
          [
            121.55547,
            25.10377
          ],
          [
            121.55559,
            25.10382
          ],
          [
            121.55559,
            25.10382
          ],
          [
            121.55584,
            25.10393
          ],
          [
            121.55598,
            25.104
          ],
          [
            121.55602,
            25.10402
          ],
          [
            121.55609,
            25.10406
          ],
          [
            121.55618,
            25.10411
          ],
          [
            121.55619,
            25.10411
          ],
          [
            121.55652,
            25.10432
          ],
          [
            121.5567,
            25.10443
          ],
          [
            121.5568,
            25.1045
          ],
          [
            121.55684,
            25.10454
          ],
          [
            121.55689,
            25.10458
          ],
          [
            121.55697,
            25.10467
          ],
          [
            121.55702,
            25.10474
          ],
          [
            121.55705,
            25.1048
          ],
          [
            121.55706,
            25.10484
          ],
          [
            121.55714,
            25.10501
          ],
          [
            121.55722,
            25.1052
          ],
          [
            121.55728,
            25.1053
          ],
          [
            121.55734,
            25.10548
          ],
          [
            121.55737,
            25.10559
          ],
          [
            121.55737,
            25.10563
          ],
          [
            121.55739,
            25.10574
          ],
          [
            121.55741,
            25.10589
          ],
          [
            121.55742,
            25.10601
          ],
          [
            121.55742,
            25.10616
          ],
          [
            121.55743,
            25.10617
          ],
          [
            121.55743,
            25.10618
          ],
          [
            121.55747,
            25.10685
          ],
          [
            121.55748,
            25.10713
          ],
          [
            121.55749,
            25.1073
          ],
          [
            121.5575,
            25.10749
          ],
          [
            121.55751,
            25.10759
          ],
          [
            121.55752,
            25.10771
          ],
          [
            121.55752,
            25.10771
          ],
          [
            121.55773,
            25.10771
          ],
          [
            121.55776,
            25.10771
          ],
          [
            121.55783,
            25.1077
          ],
          [
            121.55785,
            25.10769
          ],
          [
            121.55787,
            25.10768
          ],
          [
            121.55789,
            25.10767
          ],
          [
            121.5579,
            25.10765
          ],
          [
            121.55791,
            25.10763
          ],
          [
            121.55793,
            25.1076
          ],
          [
            121.55794,
            25.10757
          ],
          [
            121.55796,
            25.10748
          ],
          [
            121.55796,
            25.10737
          ],
          [
            121.55795,
            25.10714
          ],
          [
            121.55795,
            25.10712
          ],
          [
            121.55796,
            25.10663
          ],
          [
            121.55796,
            25.10651
          ],
          [
            121.55795,
            25.10643
          ],
          [
            121.55794,
            25.1064
          ],
          [
            121.55794,
            25.10636
          ],
          [
            121.55792,
            25.10632
          ],
          [
            121.55791,
            25.10627
          ],
          [
            121.55791,
            25.10624
          ],
          [
            121.55791,
            25.10621
          ],
          [
            121.5579,
            25.10617
          ],
          [
            121.5579,
            25.10611
          ],
          [
            121.5579,
            25.10605
          ],
          [
            121.5579,
            25.10604
          ],
          [
            121.5579,
            25.10599
          ],
          [
            121.55791,
            25.10592
          ],
          [
            121.55792,
            25.10587
          ],
          [
            121.55793,
            25.10584
          ],
          [
            121.55799,
            25.10553
          ],
          [
            121.55802,
            25.10533
          ],
          [
            121.55803,
            25.10522
          ],
          [
            121.55804,
            25.10516
          ],
          [
            121.55806,
            25.10506
          ],
          [
            121.55808,
            25.10497
          ],
          [
            121.55811,
            25.10489
          ],
          [
            121.5582,
            25.10466
          ],
          [
            121.55832,
            25.1044
          ],
          [
            121.55837,
            25.10428
          ],
          [
            121.55841,
            25.10419
          ],
          [
            121.55845,
            25.10407
          ],
          [
            121.55847,
            25.10402
          ],
          [
            121.55848,
            25.10398
          ],
          [
            121.55849,
            25.10394
          ],
          [
            121.55851,
            25.10389
          ],
          [
            121.55854,
            25.10377
          ],
          [
            121.55855,
            25.10372
          ],
          [
            121.55856,
            25.10369
          ],
          [
            121.55857,
            25.10363
          ],
          [
            121.55857,
            25.10361
          ],
          [
            121.55857,
            25.10359
          ],
          [
            121.55857,
            25.10357
          ],
          [
            121.55857,
            25.10355
          ],
          [
            121.55856,
            25.10354
          ],
          [
            121.55855,
            25.10352
          ],
          [
            121.55854,
            25.1035
          ],
          [
            121.55853,
            25.10347
          ],
          [
            121.5585,
            25.10345
          ],
          [
            121.55845,
            25.10342
          ],
          [
            121.55834,
            25.10335
          ],
          [
            121.55827,
            25.1033
          ],
          [
            121.55824,
            25.10328
          ],
          [
            121.55821,
            25.10325
          ],
          [
            121.55819,
            25.10323
          ],
          [
            121.55817,
            25.10321
          ],
          [
            121.55814,
            25.10316
          ],
          [
            121.55812,
            25.10313
          ],
          [
            121.55811,
            25.1031
          ],
          [
            121.5581,
            25.10306
          ],
          [
            121.55808,
            25.10304
          ],
          [
            121.55807,
            25.10302
          ],
          [
            121.55807,
            25.103
          ],
          [
            121.55807,
            25.10299
          ],
          [
            121.55807,
            25.10298
          ],
          [
            121.55808,
            25.10296
          ],
          [
            121.55809,
            25.10294
          ],
          [
            121.55809,
            25.10293
          ],
          [
            121.55811,
            25.1029
          ],
          [
            121.55812,
            25.10286
          ],
          [
            121.55816,
            25.10282
          ],
          [
            121.5582,
            25.10278
          ],
          [
            121.55824,
            25.10276
          ],
          [
            121.55827,
            25.10274
          ],
          [
            121.55831,
            25.10271
          ],
          [
            121.55837,
            25.10268
          ],
          [
            121.55841,
            25.10266
          ],
          [
            121.55846,
            25.10265
          ],
          [
            121.55852,
            25.10264
          ],
          [
            121.55857,
            25.10263
          ],
          [
            121.55872,
            25.10261
          ],
          [
            121.55882,
            25.10259
          ],
          [
            121.55889,
            25.10257
          ],
          [
            121.55895,
            25.10255
          ],
          [
            121.55901,
            25.10253
          ],
          [
            121.55903,
            25.10252
          ],
          [
            121.55904,
            25.10251
          ],
          [
            121.55904,
            25.1025
          ],
          [
            121.55906,
            25.10247
          ],
          [
            121.55909,
            25.10245
          ],
          [
            121.55912,
            25.1024
          ],
          [
            121.55914,
            25.10235
          ],
          [
            121.55918,
            25.10229
          ],
          [
            121.55921,
            25.10218
          ],
          [
            121.55922,
            25.10215
          ],
          [
            121.55923,
            25.1021
          ],
          [
            121.55923,
            25.10206
          ],
          [
            121.55923,
            25.10199
          ],
          [
            121.55923,
            25.10194
          ],
          [
            121.55922,
            25.10188
          ],
          [
            121.55918,
            25.10174
          ],
          [
            121.55916,
            25.10169
          ],
          [
            121.55915,
            25.10165
          ],
          [
            121.55915,
            25.10163
          ],
          [
            121.55912,
            25.10156
          ],
          [
            121.55908,
            25.10149
          ],
          [
            121.55906,
            25.10146
          ],
          [
            121.55902,
            25.10143
          ],
          [
            121.559,
            25.10141
          ],
          [
            121.55898,
            25.1014
          ],
          [
            121.55896,
            25.10138
          ],
          [
            121.55894,
            25.10137
          ],
          [
            121.55891,
            25.10136
          ],
          [
            121.55888,
            25.10135
          ],
          [
            121.55885,
            25.10135
          ],
          [
            121.55881,
            25.10134
          ],
          [
            121.55878,
            25.10134
          ],
          [
            121.55876,
            25.10134
          ],
          [
            121.55872,
            25.10135
          ],
          [
            121.55864,
            25.10137
          ],
          [
            121.55855,
            25.1014
          ],
          [
            121.5585,
            25.10141
          ],
          [
            121.55844,
            25.10143
          ],
          [
            121.55838,
            25.10144
          ],
          [
            121.55834,
            25.10144
          ],
          [
            121.55827,
            25.10145
          ],
          [
            121.55819,
            25.10146
          ],
          [
            121.55815,
            25.10146
          ],
          [
            121.55807,
            25.10147
          ],
          [
            121.55804,
            25.10147
          ],
          [
            121.55798,
            25.10149
          ],
          [
            121.55792,
            25.10151
          ],
          [
            121.55786,
            25.10153
          ],
          [
            121.5578,
            25.10156
          ],
          [
            121.55764,
            25.10163
          ],
          [
            121.5576,
            25.10165
          ],
          [
            121.55753,
            25.10167
          ],
          [
            121.5575,
            25.10168
          ],
          [
            121.55743,
            25.1017
          ],
          [
            121.5573,
            25.10174
          ],
          [
            121.55725,
            25.10176
          ],
          [
            121.55721,
            25.10178
          ],
          [
            121.55719,
            25.10178
          ],
          [
            121.55716,
            25.10179
          ],
          [
            121.55712,
            25.1018
          ],
          [
            121.5571,
            25.10179
          ],
          [
            121.55708,
            25.10179
          ],
          [
            121.55706,
            25.10178
          ],
          [
            121.55703,
            25.10177
          ],
          [
            121.557,
            25.10176
          ],
          [
            121.55697,
            25.10174
          ],
          [
            121.55692,
            25.10171
          ],
          [
            121.55687,
            25.10168
          ],
          [
            121.55682,
            25.10164
          ],
          [
            121.55678,
            25.10161
          ],
          [
            121.55674,
            25.10158
          ],
          [
            121.55671,
            25.10153
          ],
          [
            121.55669,
            25.10151
          ],
          [
            121.55668,
            25.10149
          ],
          [
            121.55667,
            25.10147
          ],
          [
            121.55667,
            25.10144
          ],
          [
            121.55666,
            25.10141
          ],
          [
            121.55667,
            25.10138
          ],
          [
            121.55667,
            25.10133
          ],
          [
            121.55668,
            25.10126
          ],
          [
            121.55668,
            25.10122
          ],
          [
            121.55668,
            25.10117
          ],
          [
            121.55668,
            25.10114
          ],
          [
            121.55668,
            25.10111
          ],
          [
            121.55667,
            25.10108
          ],
          [
            121.55666,
            25.10105
          ],
          [
            121.55664,
            25.10102
          ],
          [
            121.55662,
            25.101
          ],
          [
            121.55661,
            25.10099
          ],
          [
            121.5566,
            25.10098
          ],
          [
            121.55657,
            25.10097
          ],
          [
            121.55655,
            25.10096
          ],
          [
            121.55653,
            25.10095
          ],
          [
            121.5565,
            25.10094
          ],
          [
            121.55646,
            25.10092
          ],
          [
            121.55642,
            25.10091
          ],
          [
            121.55641,
            25.10091
          ],
          [
            121.55635,
            25.1009
          ],
          [
            121.55629,
            25.10088
          ],
          [
            121.55626,
            25.10088
          ],
          [
            121.55623,
            25.10087
          ],
          [
            121.55622,
            25.10086
          ],
          [
            121.55618,
            25.10085
          ],
          [
            121.55615,
            25.10083
          ],
          [
            121.55613,
            25.10081
          ],
          [
            121.5561,
            25.10079
          ],
          [
            121.55608,
            25.10076
          ],
          [
            121.55606,
            25.10072
          ],
          [
            121.55605,
            25.10068
          ],
          [
            121.55606,
            25.10066
          ],
          [
            121.55606,
            25.10063
          ],
          [
            121.55606,
            25.10061
          ],
          [
            121.5561,
            25.10055
          ],
          [
            121.55614,
            25.10049
          ],
          [
            121.55618,
            25.10044
          ],
          [
            121.5562,
            25.1004
          ],
          [
            121.55622,
            25.10035
          ],
          [
            121.55625,
            25.10027
          ],
          [
            121.55625,
            25.10024
          ],
          [
            121.55625,
            25.10021
          ],
          [
            121.55625,
            25.10018
          ],
          [
            121.55624,
            25.10014
          ],
          [
            121.55622,
            25.1001
          ],
          [
            121.5562,
            25.10006
          ],
          [
            121.55616,
            25.09999
          ],
          [
            121.55614,
            25.09996
          ],
          [
            121.55613,
            25.09994
          ],
          [
            121.55612,
            25.09992
          ],
          [
            121.55609,
            25.09985
          ],
          [
            121.55604,
            25.09967
          ],
          [
            121.55602,
            25.09961
          ],
          [
            121.55602,
            25.09958
          ],
          [
            121.55601,
            25.09955
          ],
          [
            121.556,
            25.09952
          ],
          [
            121.55599,
            25.09949
          ],
          [
            121.55598,
            25.09947
          ],
          [
            121.55597,
            25.09944
          ],
          [
            121.55596,
            25.09943
          ],
          [
            121.55595,
            25.09941
          ],
          [
            121.55594,
            25.0994
          ],
          [
            121.55593,
            25.09939
          ],
          [
            121.55591,
            25.09937
          ],
          [
            121.55589,
            25.09935
          ],
          [
            121.55584,
            25.09933
          ],
          [
            121.55578,
            25.09931
          ],
          [
            121.55561,
            25.09927
          ],
          [
            121.55557,
            25.09926
          ],
          [
            121.5554,
            25.09923
          ],
          [
            121.55526,
            25.0992
          ],
          [
            121.55521,
            25.0992
          ],
          [
            121.5552,
            25.0992
          ],
          [
            121.55514,
            25.0992
          ],
          [
            121.5551,
            25.0992
          ],
          [
            121.55505,
            25.0992
          ],
          [
            121.55501,
            25.09921
          ],
          [
            121.55499,
            25.09922
          ],
          [
            121.55496,
            25.09923
          ],
          [
            121.55493,
            25.09925
          ],
          [
            121.55489,
            25.09928
          ],
          [
            121.5548,
            25.09933
          ],
          [
            121.55476,
            25.09935
          ],
          [
            121.55473,
            25.09936
          ],
          [
            121.5547,
            25.09937
          ],
          [
            121.55468,
            25.09937
          ],
          [
            121.55467,
            25.09938
          ],
          [
            121.55465,
            25.09938
          ],
          [
            121.55459,
            25.09938
          ],
          [
            121.55452,
            25.09935
          ],
          [
            121.55448,
            25.09933
          ],
          [
            121.55424,
            25.09919
          ],
          [
            121.55418,
            25.09915
          ],
          [
            121.55414,
            25.09913
          ],
          [
            121.55411,
            25.0991
          ],
          [
            121.55408,
            25.09906
          ],
          [
            121.55405,
            25.09899
          ],
          [
            121.55403,
            25.09894
          ],
          [
            121.55402,
            25.09888
          ],
          [
            121.55401,
            25.09883
          ],
          [
            121.55402,
            25.09876
          ],
          [
            121.55403,
            25.09866
          ],
          [
            121.55409,
            25.0985
          ],
          [
            121.5541,
            25.09844
          ],
          [
            121.55411,
            25.0984
          ],
          [
            121.55411,
            25.09837
          ],
          [
            121.55412,
            25.09823
          ],
          [
            121.55411,
            25.09817
          ],
          [
            121.5541,
            25.09813
          ],
          [
            121.55409,
            25.09808
          ],
          [
            121.55406,
            25.098
          ],
          [
            121.55403,
            25.09794
          ],
          [
            121.55403,
            25.09791
          ],
          [
            121.55403,
            25.09788
          ],
          [
            121.55404,
            25.09786
          ],
          [
            121.55405,
            25.09784
          ],
          [
            121.55407,
            25.09782
          ],
          [
            121.55408,
            25.0978
          ],
          [
            121.55426,
            25.09772
          ],
          [
            121.55433,
            25.09768
          ],
          [
            121.55437,
            25.09765
          ],
          [
            121.5544,
            25.0976
          ],
          [
            121.55444,
            25.09756
          ],
          [
            121.55446,
            25.09753
          ],
          [
            121.55449,
            25.09747
          ],
          [
            121.55451,
            25.09741
          ],
          [
            121.55453,
            25.09735
          ],
          [
            121.55455,
            25.09729
          ],
          [
            121.55458,
            25.09723
          ],
          [
            121.5546,
            25.09719
          ],
          [
            121.55461,
            25.09715
          ],
          [
            121.55461,
            25.09711
          ],
          [
            121.55461,
            25.09706
          ],
          [
            121.5546,
            25.09701
          ],
          [
            121.55458,
            25.09696
          ],
          [
            121.55456,
            25.09692
          ],
          [
            121.55453,
            25.09689
          ],
          [
            121.5545,
            25.09684
          ],
          [
            121.55437,
            25.0968
          ],
          [
            121.55419,
            25.09674
          ],
          [
            121.55415,
            25.09672
          ],
          [
            121.55406,
            25.09668
          ],
          [
            121.55399,
            25.09662
          ],
          [
            121.55393,
            25.09656
          ],
          [
            121.55387,
            25.09647
          ],
          [
            121.55382,
            25.0964
          ],
          [
            121.55373,
            25.09627
          ],
          [
            121.55373,
            25.09626
          ],
          [
            121.55369,
            25.09622
          ],
          [
            121.55368,
            25.0962
          ],
          [
            121.55368,
            25.09617
          ],
          [
            121.55368,
            25.09615
          ],
          [
            121.55368,
            25.09613
          ],
          [
            121.55369,
            25.09609
          ],
          [
            121.5537,
            25.09605
          ],
          [
            121.5537,
            25.09603
          ],
          [
            121.55373,
            25.09596
          ],
          [
            121.55375,
            25.0959
          ],
          [
            121.55378,
            25.09585
          ],
          [
            121.5538,
            25.09582
          ],
          [
            121.55383,
            25.09578
          ],
          [
            121.55388,
            25.09573
          ],
          [
            121.55417,
            25.09548
          ],
          [
            121.55424,
            25.09541
          ],
          [
            121.55428,
            25.09537
          ],
          [
            121.55431,
            25.09534
          ],
          [
            121.55438,
            25.0953
          ],
          [
            121.55441,
            25.09529
          ],
          [
            121.55447,
            25.09527
          ],
          [
            121.5546,
            25.09527
          ],
          [
            121.55468,
            25.09528
          ],
          [
            121.55477,
            25.09532
          ],
          [
            121.55486,
            25.09535
          ],
          [
            121.55489,
            25.09535
          ],
          [
            121.55491,
            25.09535
          ],
          [
            121.55495,
            25.09534
          ],
          [
            121.55499,
            25.09534
          ],
          [
            121.55502,
            25.09532
          ],
          [
            121.55504,
            25.09531
          ],
          [
            121.55507,
            25.09528
          ],
          [
            121.55511,
            25.09522
          ],
          [
            121.5552,
            25.09504
          ],
          [
            121.55526,
            25.09493
          ],
          [
            121.55531,
            25.09488
          ],
          [
            121.55536,
            25.09484
          ],
          [
            121.55546,
            25.09476
          ],
          [
            121.55554,
            25.09467
          ],
          [
            121.55558,
            25.09463
          ],
          [
            121.55561,
            25.09457
          ],
          [
            121.55564,
            25.09449
          ],
          [
            121.55565,
            25.09445
          ],
          [
            121.55565,
            25.09441
          ],
          [
            121.55564,
            25.09435
          ],
          [
            121.55564,
            25.09432
          ],
          [
            121.55563,
            25.0943
          ],
          [
            121.55562,
            25.09429
          ],
          [
            121.55561,
            25.09428
          ],
          [
            121.55558,
            25.09426
          ],
          [
            121.55554,
            25.09424
          ],
          [
            121.55547,
            25.09422
          ],
          [
            121.5554,
            25.09421
          ],
          [
            121.55522,
            25.09419
          ],
          [
            121.5551,
            25.09416
          ],
          [
            121.55482,
            25.09411
          ],
          [
            121.55473,
            25.09408
          ],
          [
            121.5547,
            25.09406
          ],
          [
            121.55465,
            25.09401
          ],
          [
            121.55458,
            25.09395
          ],
          [
            121.5545,
            25.09389
          ],
          [
            121.55435,
            25.09381
          ],
          [
            121.55432,
            25.09379
          ],
          [
            121.55427,
            25.09374
          ],
          [
            121.55423,
            25.09368
          ],
          [
            121.55419,
            25.09361
          ],
          [
            121.55416,
            25.09354
          ],
          [
            121.55412,
            25.09347
          ],
          [
            121.5541,
            25.09339
          ],
          [
            121.55409,
            25.09335
          ],
          [
            121.55407,
            25.09328
          ],
          [
            121.55406,
            25.09322
          ],
          [
            121.55404,
            25.09317
          ],
          [
            121.55401,
            25.09311
          ],
          [
            121.55397,
            25.09305
          ],
          [
            121.55392,
            25.09298
          ],
          [
            121.55388,
            25.09293
          ],
          [
            121.55381,
            25.09287
          ],
          [
            121.5537,
            25.09275
          ],
          [
            121.55362,
            25.09265
          ],
          [
            121.55358,
            25.0926
          ],
          [
            121.55355,
            25.09256
          ],
          [
            121.55353,
            25.09252
          ],
          [
            121.5535,
            25.09248
          ],
          [
            121.55348,
            25.09245
          ],
          [
            121.55347,
            25.09242
          ],
          [
            121.55345,
            25.09237
          ],
          [
            121.55341,
            25.09225
          ],
          [
            121.55334,
            25.09206
          ],
          [
            121.5533,
            25.09194
          ],
          [
            121.55325,
            25.09184
          ],
          [
            121.55322,
            25.09178
          ],
          [
            121.55317,
            25.09171
          ],
          [
            121.55312,
            25.09165
          ],
          [
            121.55309,
            25.09161
          ],
          [
            121.55307,
            25.09158
          ],
          [
            121.55305,
            25.09156
          ],
          [
            121.55303,
            25.09151
          ],
          [
            121.55301,
            25.09148
          ],
          [
            121.553,
            25.09146
          ],
          [
            121.55299,
            25.09143
          ],
          [
            121.55299,
            25.0914
          ],
          [
            121.55299,
            25.09138
          ],
          [
            121.55299,
            25.09135
          ],
          [
            121.55299,
            25.09131
          ],
          [
            121.55302,
            25.09117
          ],
          [
            121.55304,
            25.09107
          ],
          [
            121.55306,
            25.09094
          ],
          [
            121.55307,
            25.09089
          ],
          [
            121.55309,
            25.09077
          ],
          [
            121.5531,
            25.09072
          ],
          [
            121.55312,
            25.09063
          ],
          [
            121.55314,
            25.09054
          ],
          [
            121.55314,
            25.09049
          ],
          [
            121.55316,
            25.09044
          ],
          [
            121.55316,
            25.09039
          ],
          [
            121.55318,
            25.09036
          ],
          [
            121.5532,
            25.0903
          ],
          [
            121.55325,
            25.09022
          ],
          [
            121.55331,
            25.09014
          ],
          [
            121.55333,
            25.09012
          ],
          [
            121.55337,
            25.09006
          ],
          [
            121.55338,
            25.09004
          ],
          [
            121.55338,
            25.09003
          ],
          [
            121.55339,
            25.09002
          ],
          [
            121.55339,
            25.09001
          ],
          [
            121.55339,
            25.08997
          ],
          [
            121.55339,
            25.08994
          ],
          [
            121.55338,
            25.08991
          ],
          [
            121.55336,
            25.08988
          ],
          [
            121.55335,
            25.08987
          ],
          [
            121.55334,
            25.08986
          ],
          [
            121.55333,
            25.08986
          ],
          [
            121.55332,
            25.08985
          ],
          [
            121.55329,
            25.08984
          ],
          [
            121.55327,
            25.08983
          ],
          [
            121.55325,
            25.08983
          ],
          [
            121.55323,
            25.08983
          ],
          [
            121.55321,
            25.08983
          ],
          [
            121.55318,
            25.08984
          ],
          [
            121.55315,
            25.08985
          ],
          [
            121.55313,
            25.08987
          ],
          [
            121.55311,
            25.0899
          ],
          [
            121.55309,
            25.08992
          ],
          [
            121.55306,
            25.08996
          ],
          [
            121.55302,
            25.09001
          ],
          [
            121.55297,
            25.09006
          ],
          [
            121.55294,
            25.0901
          ],
          [
            121.5529,
            25.09014
          ],
          [
            121.55288,
            25.09015
          ],
          [
            121.55285,
            25.09016
          ],
          [
            121.55282,
            25.09017
          ],
          [
            121.55279,
            25.09018
          ],
          [
            121.55269,
            25.09019
          ],
          [
            121.55266,
            25.0902
          ],
          [
            121.55263,
            25.0902
          ],
          [
            121.55258,
            25.09021
          ],
          [
            121.55255,
            25.09022
          ],
          [
            121.55251,
            25.09023
          ],
          [
            121.55247,
            25.09024
          ],
          [
            121.55244,
            25.09025
          ],
          [
            121.55241,
            25.09025
          ],
          [
            121.55237,
            25.09025
          ],
          [
            121.55234,
            25.09024
          ],
          [
            121.55226,
            25.09024
          ],
          [
            121.55224,
            25.09023
          ],
          [
            121.55222,
            25.09023
          ],
          [
            121.55219,
            25.09022
          ],
          [
            121.55217,
            25.09021
          ],
          [
            121.55214,
            25.09019
          ],
          [
            121.55213,
            25.09018
          ],
          [
            121.5521,
            25.09016
          ],
          [
            121.55207,
            25.09014
          ],
          [
            121.55205,
            25.09012
          ],
          [
            121.552,
            25.09005
          ],
          [
            121.55193,
            25.08996
          ],
          [
            121.55191,
            25.08995
          ],
          [
            121.5519,
            25.08994
          ],
          [
            121.55187,
            25.08993
          ],
          [
            121.55184,
            25.08992
          ],
          [
            121.5518,
            25.08992
          ],
          [
            121.5517,
            25.08992
          ],
          [
            121.55168,
            25.08992
          ],
          [
            121.55167,
            25.08992
          ],
          [
            121.55164,
            25.08992
          ],
          [
            121.55162,
            25.08992
          ],
          [
            121.55161,
            25.08992
          ],
          [
            121.55159,
            25.08992
          ],
          [
            121.55158,
            25.08991
          ],
          [
            121.55157,
            25.08991
          ],
          [
            121.55156,
            25.08991
          ],
          [
            121.55154,
            25.0899
          ],
          [
            121.55153,
            25.0899
          ],
          [
            121.55152,
            25.08989
          ],
          [
            121.5515,
            25.08987
          ],
          [
            121.55148,
            25.08985
          ],
          [
            121.55147,
            25.08978
          ],
          [
            121.55147,
            25.08977
          ],
          [
            121.55147,
            25.08975
          ],
          [
            121.55148,
            25.08974
          ],
          [
            121.55148,
            25.08972
          ],
          [
            121.55149,
            25.0897
          ],
          [
            121.5515,
            25.08968
          ],
          [
            121.55152,
            25.08966
          ],
          [
            121.55154,
            25.08963
          ],
          [
            121.55155,
            25.08961
          ],
          [
            121.5516,
            25.08957
          ],
          [
            121.55171,
            25.0895
          ],
          [
            121.55177,
            25.08948
          ],
          [
            121.55182,
            25.08945
          ],
          [
            121.55185,
            25.08944
          ],
          [
            121.55187,
            25.08943
          ],
          [
            121.55188,
            25.08942
          ],
          [
            121.55191,
            25.08941
          ],
          [
            121.55193,
            25.08941
          ],
          [
            121.55194,
            25.08941
          ],
          [
            121.55195,
            25.08941
          ],
          [
            121.55196,
            25.08941
          ],
          [
            121.55197,
            25.08941
          ],
          [
            121.55199,
            25.08942
          ],
          [
            121.55206,
            25.08946
          ],
          [
            121.5521,
            25.08949
          ],
          [
            121.55213,
            25.08951
          ],
          [
            121.55217,
            25.08955
          ],
          [
            121.5522,
            25.08957
          ],
          [
            121.55222,
            25.08958
          ],
          [
            121.55224,
            25.08958
          ],
          [
            121.55227,
            25.08959
          ],
          [
            121.5523,
            25.08959
          ],
          [
            121.55234,
            25.08958
          ],
          [
            121.55237,
            25.08958
          ],
          [
            121.55239,
            25.08957
          ],
          [
            121.55242,
            25.08955
          ],
          [
            121.55252,
            25.08948
          ],
          [
            121.55257,
            25.08943
          ],
          [
            121.55262,
            25.08938
          ],
          [
            121.55268,
            25.08931
          ],
          [
            121.55272,
            25.08924
          ],
          [
            121.55279,
            25.08915
          ],
          [
            121.5528,
            25.08912
          ],
          [
            121.55286,
            25.08902
          ],
          [
            121.55289,
            25.08897
          ],
          [
            121.55291,
            25.08893
          ],
          [
            121.55295,
            25.08888
          ],
          [
            121.55301,
            25.0888
          ],
          [
            121.55306,
            25.08875
          ],
          [
            121.55312,
            25.0887
          ],
          [
            121.55317,
            25.08866
          ],
          [
            121.55322,
            25.08864
          ],
          [
            121.55327,
            25.08861
          ],
          [
            121.55332,
            25.08859
          ],
          [
            121.55339,
            25.08858
          ],
          [
            121.55346,
            25.08856
          ],
          [
            121.5535,
            25.08856
          ],
          [
            121.55353,
            25.08855
          ],
          [
            121.55355,
            25.08855
          ],
          [
            121.55356,
            25.08855
          ],
          [
            121.55359,
            25.08855
          ],
          [
            121.55363,
            25.08855
          ],
          [
            121.55367,
            25.08854
          ],
          [
            121.5537,
            25.08853
          ],
          [
            121.55373,
            25.08852
          ],
          [
            121.55379,
            25.08849
          ],
          [
            121.55392,
            25.08839
          ],
          [
            121.55395,
            25.08838
          ],
          [
            121.55398,
            25.08836
          ],
          [
            121.55401,
            25.08834
          ],
          [
            121.55405,
            25.08833
          ],
          [
            121.55408,
            25.08833
          ],
          [
            121.55412,
            25.08832
          ],
          [
            121.55419,
            25.0883
          ],
          [
            121.55424,
            25.08827
          ],
          [
            121.55427,
            25.08826
          ],
          [
            121.5543,
            25.08823
          ],
          [
            121.55433,
            25.0882
          ],
          [
            121.55435,
            25.08816
          ],
          [
            121.55437,
            25.08812
          ],
          [
            121.55438,
            25.08811
          ],
          [
            121.5544,
            25.08808
          ],
          [
            121.55446,
            25.08801
          ],
          [
            121.55451,
            25.08796
          ],
          [
            121.55457,
            25.08791
          ],
          [
            121.55466,
            25.08784
          ],
          [
            121.55472,
            25.08781
          ],
          [
            121.55477,
            25.08778
          ],
          [
            121.55483,
            25.08777
          ],
          [
            121.5549,
            25.08776
          ],
          [
            121.55498,
            25.08776
          ],
          [
            121.55504,
            25.08775
          ],
          [
            121.55513,
            25.08774
          ],
          [
            121.55523,
            25.08773
          ],
          [
            121.55528,
            25.08772
          ],
          [
            121.55534,
            25.08771
          ],
          [
            121.55542,
            25.08771
          ],
          [
            121.55546,
            25.08772
          ],
          [
            121.55551,
            25.08773
          ],
          [
            121.55555,
            25.08774
          ],
          [
            121.55562,
            25.08777
          ],
          [
            121.5557,
            25.08779
          ],
          [
            121.55576,
            25.08781
          ],
          [
            121.55581,
            25.08783
          ],
          [
            121.55588,
            25.08784
          ],
          [
            121.55596,
            25.08785
          ],
          [
            121.556,
            25.08785
          ],
          [
            121.55607,
            25.08785
          ],
          [
            121.55612,
            25.08784
          ],
          [
            121.55617,
            25.08784
          ],
          [
            121.55619,
            25.08784
          ],
          [
            121.55622,
            25.08783
          ],
          [
            121.55628,
            25.08783
          ],
          [
            121.55639,
            25.08784
          ],
          [
            121.5564,
            25.08784
          ],
          [
            121.55645,
            25.08784
          ],
          [
            121.55654,
            25.08785
          ],
          [
            121.55666,
            25.08785
          ],
          [
            121.55679,
            25.08786
          ],
          [
            121.55688,
            25.08785
          ],
          [
            121.55693,
            25.08785
          ],
          [
            121.557,
            25.08784
          ],
          [
            121.5571,
            25.08782
          ],
          [
            121.5572,
            25.0878
          ],
          [
            121.55724,
            25.08778
          ],
          [
            121.5573,
            25.08775
          ],
          [
            121.55734,
            25.08772
          ],
          [
            121.55739,
            25.08769
          ],
          [
            121.55758,
            25.08754
          ],
          [
            121.55773,
            25.08744
          ],
          [
            121.55785,
            25.08735
          ],
          [
            121.55795,
            25.08727
          ],
          [
            121.558,
            25.08723
          ],
          [
            121.55803,
            25.0872
          ],
          [
            121.55805,
            25.08718
          ],
          [
            121.55806,
            25.08717
          ],
          [
            121.55807,
            25.08715
          ],
          [
            121.55809,
            25.08712
          ],
          [
            121.5581,
            25.0871
          ],
          [
            121.5581,
            25.08708
          ],
          [
            121.5581,
            25.08707
          ],
          [
            121.5581,
            25.08706
          ],
          [
            121.5581,
            25.08703
          ],
          [
            121.5581,
            25.08702
          ],
          [
            121.5581,
            25.08701
          ],
          [
            121.55809,
            25.087
          ],
          [
            121.55808,
            25.08699
          ],
          [
            121.55807,
            25.08699
          ],
          [
            121.55805,
            25.08698
          ],
          [
            121.55803,
            25.08698
          ],
          [
            121.55802,
            25.08698
          ],
          [
            121.558,
            25.08698
          ],
          [
            121.55797,
            25.08699
          ],
          [
            121.55795,
            25.087
          ],
          [
            121.55793,
            25.08701
          ],
          [
            121.55791,
            25.08702
          ],
          [
            121.55787,
            25.08704
          ],
          [
            121.55782,
            25.08707
          ],
          [
            121.5578,
            25.08708
          ],
          [
            121.55779,
            25.08709
          ],
          [
            121.55774,
            25.08712
          ],
          [
            121.55769,
            25.08714
          ],
          [
            121.55762,
            25.08716
          ],
          [
            121.55757,
            25.08716
          ],
          [
            121.55752,
            25.08716
          ],
          [
            121.55747,
            25.08716
          ],
          [
            121.55742,
            25.08716
          ],
          [
            121.55726,
            25.08716
          ],
          [
            121.55723,
            25.08716
          ],
          [
            121.55718,
            25.08716
          ],
          [
            121.55709,
            25.08716
          ],
          [
            121.55701,
            25.08716
          ],
          [
            121.55699,
            25.08716
          ],
          [
            121.55695,
            25.08716
          ],
          [
            121.55692,
            25.08717
          ],
          [
            121.5569,
            25.08717
          ],
          [
            121.55688,
            25.08718
          ],
          [
            121.55686,
            25.08718
          ],
          [
            121.55684,
            25.08719
          ],
          [
            121.55679,
            25.08722
          ],
          [
            121.55676,
            25.08724
          ],
          [
            121.55671,
            25.08727
          ],
          [
            121.55667,
            25.08729
          ],
          [
            121.55666,
            25.0873
          ],
          [
            121.55663,
            25.0873
          ],
          [
            121.55659,
            25.08731
          ],
          [
            121.55656,
            25.08731
          ],
          [
            121.5565,
            25.08729
          ],
          [
            121.55647,
            25.08728
          ],
          [
            121.55645,
            25.08727
          ],
          [
            121.55644,
            25.08727
          ],
          [
            121.55638,
            25.08724
          ],
          [
            121.55617,
            25.08711
          ],
          [
            121.55596,
            25.08697
          ],
          [
            121.55591,
            25.08693
          ],
          [
            121.55584,
            25.08688
          ],
          [
            121.5556,
            25.08667
          ],
          [
            121.55556,
            25.08663
          ],
          [
            121.55549,
            25.08658
          ],
          [
            121.55546,
            25.08656
          ],
          [
            121.55545,
            25.08655
          ],
          [
            121.55537,
            25.08651
          ],
          [
            121.55534,
            25.0865
          ],
          [
            121.55532,
            25.08649
          ],
          [
            121.55531,
            25.08649
          ],
          [
            121.55528,
            25.08649
          ],
          [
            121.55521,
            25.08649
          ],
          [
            121.55517,
            25.0865
          ],
          [
            121.55504,
            25.08653
          ],
          [
            121.55492,
            25.08655
          ],
          [
            121.55486,
            25.08656
          ],
          [
            121.5548,
            25.08656
          ],
          [
            121.55479,
            25.08655
          ],
          [
            121.55474,
            25.08654
          ],
          [
            121.55467,
            25.08653
          ],
          [
            121.55462,
            25.08652
          ],
          [
            121.55459,
            25.08651
          ],
          [
            121.55456,
            25.08649
          ],
          [
            121.55451,
            25.08647
          ],
          [
            121.55448,
            25.08645
          ],
          [
            121.55444,
            25.08643
          ],
          [
            121.55441,
            25.08641
          ],
          [
            121.55436,
            25.08636
          ],
          [
            121.55433,
            25.08634
          ],
          [
            121.55431,
            25.08631
          ],
          [
            121.55428,
            25.08627
          ],
          [
            121.55426,
            25.08624
          ],
          [
            121.55424,
            25.0862
          ],
          [
            121.55422,
            25.08617
          ],
          [
            121.5542,
            25.08613
          ],
          [
            121.55418,
            25.08608
          ],
          [
            121.55418,
            25.08607
          ],
          [
            121.55416,
            25.08603
          ],
          [
            121.55413,
            25.08596
          ],
          [
            121.55411,
            25.08589
          ],
          [
            121.55408,
            25.08582
          ],
          [
            121.55405,
            25.08576
          ],
          [
            121.55404,
            25.08572
          ],
          [
            121.554,
            25.08561
          ],
          [
            121.55394,
            25.08547
          ],
          [
            121.55394,
            25.08547
          ],
          [
            121.55309,
            25.08572
          ],
          [
            121.55296,
            25.08576
          ],
          [
            121.55269,
            25.08584
          ],
          [
            121.55256,
            25.08588
          ],
          [
            121.55232,
            25.08595
          ],
          [
            121.55199,
            25.08602
          ],
          [
            121.55151,
            25.08608
          ],
          [
            121.5506,
            25.08616
          ],
          [
            121.55049,
            25.08617
          ],
          [
            121.55035,
            25.08619
          ],
          [
            121.55035,
            25.08619
          ],
          [
            121.55028,
            25.08622
          ],
          [
            121.55017,
            25.08629
          ],
          [
            121.55005,
            25.08636
          ],
          [
            121.54999,
            25.0864
          ],
          [
            121.54987,
            25.08647
          ],
          [
            121.5498,
            25.08654
          ],
          [
            121.54977,
            25.08658
          ],
          [
            121.54971,
            25.08667
          ],
          [
            121.54964,
            25.08689
          ],
          [
            121.54962,
            25.08697
          ],
          [
            121.54962,
            25.08697
          ],
          [
            121.5496,
            25.0871
          ],
          [
            121.54958,
            25.08723
          ],
          [
            121.54936,
            25.08966
          ],
          [
            121.54934,
            25.08984
          ],
          [
            121.54926,
            25.09073
          ],
          [
            121.5492,
            25.09138
          ],
          [
            121.54911,
            25.09216
          ],
          [
            121.54897,
            25.09355
          ],
          [
            121.54892,
            25.09402
          ],
          [
            121.54888,
            25.09448
          ],
          [
            121.54888,
            25.09448
          ],
          [
            121.54888,
            25.09463
          ],
          [
            121.54886,
            25.09482
          ],
          [
            121.54884,
            25.09506
          ],
          [
            121.54882,
            25.09522
          ],
          [
            121.54879,
            25.09545
          ],
          [
            121.54879,
            25.09547
          ],
          [
            121.54878,
            25.09554
          ],
          [
            121.54877,
            25.09558
          ],
          [
            121.54874,
            25.09562
          ],
          [
            121.54866,
            25.09573
          ],
          [
            121.54863,
            25.09577
          ],
          [
            121.54863,
            25.09577
          ],
          [
            121.5485,
            25.09587
          ],
          [
            121.54838,
            25.09592
          ],
          [
            121.54815,
            25.09602
          ],
          [
            121.54789,
            25.09612
          ],
          [
            121.54778,
            25.09617
          ],
          [
            121.54771,
            25.0962
          ],
          [
            121.54764,
            25.09624
          ],
          [
            121.54758,
            25.09627
          ],
          [
            121.54746,
            25.09636
          ],
          [
            121.54738,
            25.09644
          ],
          [
            121.54735,
            25.09648
          ],
          [
            121.54731,
            25.09652
          ],
          [
            121.54728,
            25.09657
          ],
          [
            121.54726,
            25.09661
          ],
          [
            121.54723,
            25.09665
          ],
          [
            121.5472,
            25.09671
          ],
          [
            121.54716,
            25.09679
          ],
          [
            121.54704,
            25.09709
          ],
          [
            121.5469,
            25.0974
          ],
          [
            121.54683,
            25.09759
          ],
          [
            121.54669,
            25.09794
          ],
          [
            121.5466,
            25.09811
          ],
          [
            121.5466,
            25.09811
          ],
          [
            121.54651,
            25.09828
          ],
          [
            121.54644,
            25.09824
          ],
          [
            121.54622,
            25.09814
          ],
          [
            121.54536,
            25.09771
          ],
          [
            121.54484,
            25.09746
          ],
          [
            121.54426,
            25.09718
          ],
          [
            121.54419,
            25.09718
          ],
          [
            121.54415,
            25.09718
          ],
          [
            121.54412,
            25.09718
          ],
          [
            121.54321,
            25.09724
          ],
          [
            121.54281,
            25.09725
          ],
          [
            121.54244,
            25.09728
          ],
          [
            121.54244,
            25.09728
          ],
          [
            121.54243,
            25.09712
          ],
          [
            121.5441,
            25.09702
          ],
          [
            121.54411,
            25.09714
          ]
        ]
      },
      "properties": {
        "name": "臺北市自強隧道至至善路二段完整路段",
        "description": "臺北市自強隧道、自強橋、至善路二段(至善國中至中影製片廠)雙向路段",
        "segments": [
          {
            "origin": "臺北市自強隧道",
            "destination": "臺北市自強橋",
            "distance": "0.5 km",
            "duration": "1 min"
          },
          {
            "origin": "臺北市自強橋",
            "destination": "臺北市士林區至善國中",
            "distance": "1.5 km",
            "duration": "4 mins"
          },
          {
            "origin": "臺北市士林區至善國中",
            "destination": "臺北市士林區中影文化城",
            "distance": "7.5 km",
            "duration": "17 mins"
          }
        ],
        "source": "semantic-geocoder-detailed"
      }
    }
  ]
}
